PLEIADES NEO 3          
1 48268U 21034A   26188.85055273 -.00000292  00000+0 -30522-4 0  9998
2 48268  97.8935 263.3198 0001337  91.6002 268.5364 14.81672263280717
PLEIADES NEO 4          
1 49070U 21073E   26188.41157615 -.00000002  00000+0  63105-5 0  9990
2 49070  97.8931 262.8836 0001292  91.3078 268.8283 14.81677754264364
